              M50 Cartesian                         J2K Cartesian  
    -----------------------------------       --------------------------------
     X    =       15026792.99                 X    =         4588339.12
     Y    =        4380852.38  feet           Y    =         1386547.41  meter
     Z    =      -15834626.45                 Z    =        -4804125.19
     XDOT =       2097.647122                 XDOT =         546.438903
     YDOT =      23548.593700  feet/sec       YDOT =        7184.241871  meter/sec
     ZDOT =       8520.003870                 ZDOT =        2599.776510
 
              TDR Cartesian                         TDR Cartesian  
    -----------------------------------       --------------------------------
     X    =        1319999.36                 X    =          402335.80
     Y    =      -15694029.94  feet           Y    =        -4783540.33  meter
     Z    =      -15738068.36                 Z    =        -4796963.24
     XDOT =      21543.824047                 XDOT =        6566.557569
     YDOT =      -6728.649330  feet/sec       YDOT =       -2050.892316  meter/sec
     ZDOT =       8531.206724                 ZDOT =        2600.311809
  
  
    The mean element set is posted at the UTC for which position is
    just north of the next ascending node relative to the above
    vector time
 
 
    TWO LINE MEAN ELEMENT SET
  
    ISS
    1 25544U 98067A   16094.76064955  .00016717  00000-0  10270-3 0  9076
    2 25544  51.6429  69.2500 0002629  19.5665 340.5588 15.54355952 33409
  
  
    Satellite: ISS
    Catalog Number: 25544
    Epoch time:      16094.76064955   =   yrday.fracday
    Element set:     907
    Inclination:       51.6429  deg
    RA of node:        69.2500  deg
    Eccentricity:     .0002629     
    Arg of perigee:    19.5665  deg
    Mean anomaly:     340.5588  deg
    Mean motion:   15.54355952  rev/day
    Decay rate:    1.67170E-04  rev/day^2
    Epoch rev:            3340
    Checksum:              329
 
 
    Coasting Arc #9 (Orbit 3340)
    ---------------------------------------
 
    Vector Time (GMT): 2016/094/18:43:00.000
    Vector Time (MET): N/A
    Weight (LBS)     : 922235.5
 
              M50 Cartesian                         M50 Keplerian  
    -----------------------------------       --------------------------------
     X    =       -4453521.09                 A    =         6777711.29  meter
     Y    =        -439587.98  meter          E    =           .0007725
     Z    =        5087173.68                 I    =           51.97064
     XDOT =      -1367.525371                 Wp   =           43.41332
     YDOT =      -7325.060163  meter/sec      RA   =           68.39384  deg
     ZDOT =      -1823.050792                 TA   =           64.18590
                                              MA   =           64.10622
                                              Ha   =            221.212  n.mi
                                              Hp   =            213.930
 
              M50 Cartesian                         J2K Cartesian  
    -----------------------------------       --------------------------------
     X    =      -14611289.67                 X    =        -4472985.77
     Y    =       -1442217.78  feet           Y    =         -489498.46  meter
     Z    =       16690202.37                 Z    =         5065492.41
     XDOT =      -4486.631794                 XDOT =       -1276.657508
     YDOT =     -24032.349617  feet/sec       YDOT =       -7339.844880  meter/sec
     ZDOT =      -5981.137768                 ZDOT =       -1829.472320
 
              TDR Cartesian                         TDR Cartesian  
    -----------------------------------       --------------------------------
     X    =        4283087.30                 X    =         1305485.01
     Y    =       14154837.22  feet           Y    =         4314394.38  meter
     Z    =       16596035.05                 Z    =         5058471.48
     XDOT =     -19486.291162                 XDOT =       -5939.421546
     YDOT =      12967.625688  feet/sec       YDOT =        3952.532310  meter/sec
     ZDOT =      -6007.711198                 ZDOT =       -1831.150373
  
  
    The mean element set is posted at the UTC for which position is
    just north of the next ascending node relative to the above
    vector time
 
 
    TWO LINE MEAN ELEMENT SET
  
    ISS
    1 25544U 98067A   16094.82494106  .00016717  00000-0  10270-3 0  9089
    2 25544  51.6426  68.9292 0002610  17.9822 342.1423 15.54385630 33410
  
  
    Satellite: ISS
    Catalog Number: 25544
    Epoch time:      16094.82494106   =   yrday.fracday
    Element set:     908
    Inclination:       51.6426  deg
    RA of node:        68.9292  deg
    Eccentricity:     .0002610     
    Arg of perigee:    17.9822  deg
    Mean anomaly:     342.1423  deg
    Mean motion:   15.54385630  rev/day
    Decay rate:    1.67170E-04  rev/day^2
    Epoch rev:            3341
    Checksum:              303
 
 
    Coasting Arc #10 (Orbit 3355)
    ---------------------------------------
 
    Vector Time (GMT): 2016/095/18:43:00.000
    Vector Time (MET): N/A
    Weight (LBS)     : 922235.5
 
              M50 Cartesian                         M50 Keplerian  
    -----------------------------------       --------------------------------
     X    =        4812617.74                 A    =         6780981.87  meter
     Y    =        2137910.31  meter          E    =           .0008604
     Z    =       -4279610.90                 I    =           51.96844
     XDOT =        213.160930                 Wp   =           92.41999
     YDOT =       6750.209205  meter/sec      RA   =           63.42033  deg
     ZDOT =       3617.732067                 TA   =          214.38503
                                              MA   =          214.44074
                                              Ha   =            221.175  n.mi
                                              Hp   =            214.016
 
              M50 Cartesian                         J2K Cartesian  
    -----------------------------------       --------------------------------
     X    =       15789428.27                 X    =         4809141.92
     Y    =        7014141.42  feet           Y    =         2191708.20  meter
     Z    =      -14040718.19                 Z    =        -4256241.14
     XDOT =        699.346884                 XDOT =         120.089181
     YDOT =      22146.355658  feet/sec       YDOT =        6752.072990  meter/sec
     ZDOT =      11869.199695                 ZDOT =        3618.540606
 
              TDR Cartesian                         TDR Cartesian  
    -----------------------------------       --------------------------------
     X    =         126163.77                 X    =           38454.72
     Y    =      -17358561.85  feet           Y    =        -5290889.65  meter
     Z    =      -13939526.72                 Z    =        -4248767.74
     XDOT =      18810.777935                 XDOT =        5733.525115
     YDOT =      -9380.806585  feet/sec       YDOT =       -2859.269847  meter/sec
     ZDOT =      11871.470477                 ZDOT =        3618.424201
  
  
    The mean element set is posted at the UTC for which position is
    just north of the next ascending node relative to the above
    vector time
 
 
    TWO LINE MEAN ELEMENT SET
  
    ISS
    1 25544U 98067A   16095.78933340  .00016717  00000-0  10270-3 0  9094
    2 25544  51.6424  64.1200 0002586  21.0466 339.0793 15.54369011 33563
  
  
    Satellite: ISS
    Catalog Number: 25544
    Epoch time:      16095.78933340   =   yrday.fracday
    Element set:     909
    Inclination:       51.6424  deg
    RA of node:        64.1200  deg
    Eccentricity:     .0002586     
    Arg of perigee:    21.0466  deg
    Mean anomaly:     339.0793  deg
    Mean motion:   15.54369011  rev/day
    Decay rate:    1.67170E-04  rev/day^2
    Epoch rev:            3356
    Checksum:              301
 
 
    Coasting Arc #11 (Orbit 3371)
    ---------------------------------------
 
    Vector Time (GMT): 2016/096/18:43:00.000
    Vector Time (MET): N/A
    Weight (LBS)     : 922235.5
 
              M50 Cartesian                         M50 Keplerian  
    -----------------------------------       --------------------------------
     X    =       -4924329.69                 A    =         6784892.60  meter
     Y    =       -3603616.44  meter          E    =           .0014194
     Z    =        2955131.49                 I    =           51.96765
     XDOT =       1127.361340                 Wp   =           87.13150
     YDOT =      -5681.515560  meter/sec      RA   =           58.45629  deg
     ZDOT =      -5028.235863                 TA   =           59.27055
                                              MA   =           59.13081
                                              Ha   =            221.187  n.mi
                                              Hp   =            213.829
 
              M50 Cartesian                         J2K Cartesian  
    -----------------------------------       --------------------------------
     X    =      -16155937.30                 X    =        -4898021.98
     Y    =      -11822888.58  feet           Y    =        -3658536.06  meter
     Z    =        9695313.28                 Z    =         2931274.65
     XDOT =       3698.692059                 XDOT =        1215.234774
     YDOT =     -18640.142912  feet/sec       YDOT =       -5668.418034  meter/sec
     ZDOT =     -16496.836822                 ZDOT =       -5022.545169
 
